HELIOS 2A               
1 28492U 04049A   22323.44126735  .00002075  00000+0  20232-3 0  9991
2 28492  98.2522 273.8557 0012796 297.0134  62.9758 14.93607369958257
SPIRALE A               
1 33751U 09008C   22323.44710471  .00000150  00000+0  45916-3 0  9999
2 33751   2.0486 106.4314 5455946 180.4440 178.7904  4.58887947201930
SPIRALE B               
1 33752U 09008D   22323.36041574  .00002253  00000+0  89161-3 0  9998
2 33752   2.2180  33.6877 6839883 316.3120   6.5855  2.83418720129466
SAPPHIRE                
1 39088U 13009C   22323.28281347  .00000095  00000+0  48897-4 0  9991
2 39088  98.4180 155.1351 0011490 170.8886 189.2510 14.34343870509315
